SENTINEL-2A             
1 40697U 15028A   20228.56422449 -.00000002  00000-0  15886-4 0  9997
2 40697  98.5661 301.9588 0001143  95.2194 264.9118 14.30818277268914
AVUM R/B                
1 40698U 15028B   20228.42499014 -.00000645  00000-0 -22814-4 0  9998
2 40698  98.6426 169.4114 0255338 184.7736 175.1046 14.97833083281104
